[{"OBJECT_ID":"1968-050D","OBJECT_NAME":"OPS 9344 (IDSCS 23)","NORAD_CAT_ID":"3287","OBJECT_TYPE":"PAYLOAD","PERIOD":"1337.788","INCLINATION":"1.0934","APOGEE":"33947.491","PERIGEE":"33731.875","ECCENTRICITY":"0.0026806","MEAN_MOTION":"1.07640323","TLE_LINE1":"1 03287U 68050D   16237.10958697 -.00000107  00000-0  00000+0 0  9991","TLE_LINE2":"2 03287   1.0934   9.7285 0026806 117.6171 189.4908  1.07640323189256","LAUNCH_DATE":"1968-06-13","LAUNCH_SITE":"AIR FORCE EASTERN TEST RANGE","OWNER":"UNITED STATES OF AMERICA","ORBIT_TYPE":"Unclassified","OPERATIONAL_STATUS":"Nonoperational","satInfo":{"lng":-85.25969097962816,"lat":1.1998296541289817,"elevation":-7.827987074051876,"azimuth":40.259690979628154,"range":40510.24041185001,"height":33763.3977350718,"velocity":3.1541966656915044},"x":-244,"y":-22,"dx":0.26066170134109334,"dy":-3.143407718275402,"maxAlt":243,"minAlt":242},{"OBJECT_ID":"1968-050E","OBJECT_NAME":"OPS 9345 (IDSCS 24)","NORAD_CAT_ID":"3288","OBJECT_TYPE":"PAYLOAD","PERIOD":"1339.813","INCLINATION":"1.0931","APOGEE":"34028.647","PERIGEE":"33731.870","ECCENTRICITY":"0.0036859","MEAN_MOTION":"1.07477632","TLE_LINE1":"1  3288U 68050E   16238.43278596 -.00000072 +00000-0 +00000-0 0  9994","TLE_LINE2":"2  3288 001.0931 004.0549 0036859 118.8344 164.3357 01.07477632100736","LAUNCH_DATE":"1968-06-13","LAUNCH_SITE":"AIR FORCE EASTERN TEST RANGE","OWNER":"UNITED STATES OF AMERICA","ORBIT_TYPE":"Unclassified","OPERATIONAL_STATUS":"Nonoperational","satInfo":{"lng":141.27385036980843,"lat":-0.22587301971497867,"elevation":-9.162492265270025,"azimuth":173.72614963019157,"range":40922.051699645475,"height":34022.09226724139,"velocity":3.1355687251311823},"x":152,"y":190,"dx":-2.4461981599190312,"dy":1.961607960941618,"maxAlt":244,"minAlt":242},{"OBJECT_ID":"1968-050F","OBJECT_NAME":"OPS 9346 (IDSCS 25)","NORAD_CAT_ID":"3289","OBJECT_TYPE":"PAYLOAD","PERIOD":"1342.186","INCLINATION":"1.0719","APOGEE":"34121.693","PERIGEE":"33733.846","ECCENTRICITY":"0.0048113","MEAN_MOTION":"1.07287654","TLE_LINE1":"1 03289U 68050F   16238.14953707 -.00000109  00000-0  00000+0 0  9997","TLE_LINE2":"2 03289   1.0719   0.8622 0048113 119.6066 210.9567  1.07287654100805","LAUNCH_DATE":"1968-06-13","LAUNCH_SITE":"AIR FORCE EASTERN TEST RANGE","OWNER":"UNITED STATES OF AMERICA","ORBIT_TYPE":"Unclassified","OPERATIONAL_STATUS":"Nonoperational","satInfo":{"lng":-135.9362398051205,"lat":0.9393771099813779,"elevation":-8.048842820962319,"azimuth":90.93623980512048,"range":40689.43991201086,"height":33915.883744628394,"velocity":3.1457062314843576},"x":-171,"y":174,"dx":-2.2603985557749153,"dy":-2.1877079475675436,"maxAlt":244,"minAlt":242},{"OBJECT_ID":"1968-050G","OBJECT_NAME":"OPS 9347 (IDSCS 26)","NORAD_CAT_ID":"3290","OBJECT_TYPE":"PAYLOAD","PERIOD":"1345.357","INCLINATION":"1.0961","APOGEE":"34249.760","PERIGEE":"33732.694","ECCENTRICITY":"0.0064042","MEAN_MOTION":"1.07034781","TLE_LINE1":"1 03290U 68050G   16238.42333675 -.00000070  00000-0  00000+0 0  9993","TLE_LINE2":"2 03290   1.0961 352.8848 0064042 124.9404 181.6734  1.07034781100564","LAUNCH_DATE":"1968-06-13","LAUNCH_SITE":"AIR FORCE EASTERN TEST RANGE","OWNER":"UNITED STATES OF AMERICA","ORBIT_TYPE":"Unclassified","OPERATIONAL_STATUS":"Nonoperational","satInfo":{"lng":122.04671812412192,"lat":-0.22945003671102918,"elevation":-9.118754536366868,"azimuth":192.95328187587805,"range":41138.07397244897,"height":34240.35870715729,"velocity":3.12297026374807},"x":208,"y":129,"dx":-1.6570810435061574,"dy":2.6470787074636135,"maxAlt":245,"minAlt":242},{"OBJECT_ID":"1968-050H","OBJECT_NAME":"OPS 9348 (IDSCS 27)","NORAD_CAT_ID":"3291","OBJECT_TYPE":"PAYLOAD","PERIOD":"1348.720","INCLINATION":"1.0998","APOGEE":"34382.623","PERIGEE":"33734.351","ECCENTRICITY":"0.0080159","MEAN_MOTION":"1.0676784","TLE_LINE1":"1 03291U 68050H   16238.73915709 -.00000145  00000-0  00000+0 0  9995","TLE_LINE2":"2 03291   1.0998 347.5106 0080159 128.2537 220.9759  1.06767840187774","LAUNCH_DATE":"1968-06-13","LAUNCH_SITE":"AIR FORCE EASTERN TEST RANGE","OWNER":"UNITED STATES OF AMERICA","ORBIT_TYPE":"Unclassified","OPERATIONAL_STATUS":"Nonoperational","satInfo":{"lng":6.8459160784652155,"lat":-0.3883420325795308,"elevation":-9.34647275044138,"azimuth":308.1540839215347,"range":40823.185272686744,"height":33904.01678633009,"velocity":3.151721434359892},"x":28,"y":-244,"dx":3.1292506120186627,"dy":0.37568418516674074,"maxAlt":246,"minAlt":242},{"OBJECT_ID":"1968-050J","OBJECT_NAME":"TITAN 3C TRANSTAGE R/B","NORAD_CAT_ID":"3292","OBJECT_TYPE":"ROCKET BODY","PERIOD":"1363.687","INCLINATION":"1.0834","APOGEE":"35016.659","PERIGEE":"33697.522","ECCENTRICITY":"0.0161916","MEAN_MOTION":"1.05596023","TLE_LINE1":"1 03292U 68050J   16238.29399822 -.00000216  00000-0  00000+0 0  9998","TLE_LINE2":"2 03292   1.0834  22.9728 0161916 322.9853 342.0744  1.05596023 91285","LAUNCH_DATE":"1968-06-13","LAUNCH_SITE":"AIR FORCE EASTERN TEST RANGE","OWNER":"UNITED STATES OF AMERICA","ORBIT_TYPE":"Unclassified","OPERATIONAL_STATUS":"N/A, derelict rocket body","satInfo":{"lng":-8.548767654734597,"lat":0.04841834680400674,"elevation":-8.6868425792444,"azimuth":323.54876765473455,"range":41859.43606411135,"height":35001.127335228855,"velocity":3.079108292520429},"x":-39,"y":-251,"dx":3.04489846406272,"dy":-0.4577130330420563,"maxAlt":251,"minAlt":241},{"OBJECT_ID":"1983-026C","OBJECT_NAME":"IUS R/B(2)","NORAD_CAT_ID":"13970","OBJECT_TYPE":"ROCKET BODY","PERIOD":"1089.613","INCLINATION":"1.6641","APOGEE":"35236.717","PERIGEE":"22158.744","ECCENTRICITY":"0.1864241","MEAN_MOTION":"1.32156997","TLE_LINE1":"1 13970U 83026C   16239.42938936 -.00000151  00000-0  00000+0 0  9991","TLE_LINE2":"2 13970   1.6641 344.7999 1864241 156.0560 103.9895  1.32156997161202","LAUNCH_DATE":"1983-04-04","LAUNCH_SITE":"AIR FORCE EASTERN TEST RANGE","OWNER":"UNITED STATES OF AMERICA","ORBIT_TYPE":"Unclassified","OPERATIONAL_STATUS":"N/A, derelict rocket body","satInfo":{"lng":33.94221136326015,"lat":-0.9186381344708061,"elevation":-12.720873054132896,"azimuth":281.0577886367399,"range":31073.628314407106,"height":23936.660977790176,"velocity":3.864434253853643},"x":95,"y":-144,"dx":3.2059391159706823,"dy":2.1577317921944066,"maxAlt":252,"minAlt":158},{"OBJECT_ID":"1995-073A","OBJECT_NAME":"ECHOSTAR 1","NORAD_CAT_ID":"23754","OBJECT_TYPE":"PAYLOAD","PERIOD":"1436.120","INCLINATION":"0.1914","APOGEE":"35800.679","PERIGEE":"35773.457","ECCENTRICITY":"0.0003228","MEAN_MOTION":"1.00270103","TLE_LINE1":"1 23754U 95073A   16238.99147818 -.00000268  00000-0  00000+0 0  9998","TLE_LINE2":"2 23754   0.1914  92.1924 0003228  95.8870  66.2512  1.00270103 75522","LAUNCH_DATE":"1995-12-28","LAUNCH_SITE":"Xichang Space Center, China","OWNER":"UNITED STATES OF AMERICA","ORBIT_TYPE":"Geosynchronous","OPERATIONAL_STATUS":"Operational","satInfo":{"lng":-95.90819381276829,"lat":0.8336235584370196,"elevation":-7.755019180321996,"azimuth":50.908193812768275,"range":42567.95484586243,"height":35804.9549707024,"velocity":3.073817746268111},"x":-258,"y":25,"dx":-0.3164027756093475,"dy":-3.0574899543350047,"maxAlt":256,"minAlt":256},{"OBJECT_ID":"1996-021A","OBJECT_NAME":"ASTRA 1F","NORAD_CAT_ID":"23842","OBJECT_TYPE":"PAYLOAD","PERIOD":"1436.129","INCLINATION":"0.1111","APOGEE":"35803.378","PERIGEE":"35771.088","ECCENTRICITY":"0.0003829","MEAN_MOTION":"1.00269515","TLE_LINE1":"1 23842U 96021A   16239.08104855  .00000111  00000-0  00000+0 0  9991","TLE_LINE2":"2 23842   0.1111 291.4336 0003829 228.8637 247.9319  1.00269515 74411","LAUNCH_DATE":"1996-04-08","LAUNCH_SITE":"TYURATAM MISSILE AND SPACE COMPLEX","OWNER":"SOCIÉTÉ EUROPÉENNE DES SATELLITES","ORBIT_TYPE":"Geosynchronous","OPERATIONAL_STATUS":"Operational","satInfo":{"lng":99.77157646489152,"lat":0.5650716279758443,"elevation":-8.022729450999075,"azimuth":215.22842353510848,"range":42573.19119301393,"height":35780.42922655345,"velocity":3.0747400939547496},"x":253,"y":42,"dx":-0.5218468346912228,"dy":3.0301324272208983,"maxAlt":256,"minAlt":256},{"OBJECT_ID":"1996-054A","OBJECT_NAME":"AMC-1 (GE-1)","NORAD_CAT_ID":"24315","OBJECT_TYPE":"PAYLOAD","PERIOD":"1436.073","INCLINATION":"0.9541","APOGEE":"35797.333","PERIGEE":"35774.952","ECCENTRICITY":"0.0002654","MEAN_MOTION":"1.00273403","TLE_LINE1":"1 24315U 96054A   16239.42792717  .00000030  00000-0  00000+0 0  9991","TLE_LINE2":"2 24315   0.9541  86.5770 0002654  79.0417 194.3824  1.00273403 73117","LAUNCH_DATE":"1996-09-08","LAUNCH_SITE":"AIR FORCE EASTERN TEST RANGE","OWNER":"SOCIÉTÉ EUROPÉENNE DES SATELLITES","ORBIT_TYPE":"Geosynchronous","OPERATIONAL_STATUS":"Operational","satInfo":{"lng":-110.5675931098529,"lat":0.5896450023224001,"elevation":-7.999426225624007,"azimuth":65.56759310985288,"range":42566.88133639212,"height":35776.775725073196,"velocity":3.074938306824524},"x":-243,"y":89,"dx":-1.0802631888883434,"dy":-2.8789367887311554,"maxAlt":256,"minAlt":256},{"OBJECT_ID":"1997-026A","OBJECT_NAME":"GALAXY 25 (TELSTAR 5)","NORAD_CAT_ID":"24812","OBJECT_TYPE":"PAYLOAD","PERIOD":"1436.071","INCLINATION":"0.0213","APOGEE":"35798.948","PERIGEE":"35773.270","ECCENTRICITY":"0.0003045","MEAN_MOTION":"1.00273525","TLE_LINE1":"1 24812U 97026A   16237.33351853 -.00000187  00000-0  00000+0 0  9997","TLE_LINE2":"2 24812   0.0213  89.3493 0003045  60.9767 209.6875  1.00273525 70423","LAUNCH_DATE":"1997-05-24","LAUNCH_SITE":"TYURATAM MISSILE AND SPACE COMPLEX","OWNER":"UNITED STATES OF AMERICA","ORBIT_TYPE":"Geosynchronous","OPERATIONAL_STATUS":"Operational","satInfo":{"lng":-103.1336731725481,"lat":0.6052801650349412,"elevation":-7.98133593286005,"azimuth":58.133673172548086,"range":42578.91785296457,"height":35790.68448779006,"velocity":3.0746002839203963},"x":-252,"y":57,"dx":-0.698621995550421,"dy":-2.994176717098797,"maxAlt":256,"minAlt":256}]